NORAD_CAT_ID,OBJECT_NAME,OBJECT_TYPE,EPOCH,MEAN_MOTION,ECCENTRICITY,INCLINATION,RA_OF_ASC_NODE,ARG_OF_PERICENTER,MEAN_ANOMALY,BSTAR,MEAN_MOTION_DOT,MEAN_MOTION_DDOT,TLE_LINE0,TLE_LINE1,TLE_LINE2,SEMIMAJOR_AXIS,PERIOD,APOGEE,PERIGEE,DECAYED
52476.0,STARLINK-3835,PAYLOAD,2022-08-12 14:00:01,15.08817183,0.0001626999999999,53.2128,147.9705,54.8347,252.9105,0.0021980999999999,0.00034846,0.0,0 STARLINK-3835,1 52476U 22049AB  22224.58334491  .00034846  00000-0  21981-2 0  9998,2 52476  53.2128 147.9705 0001627  54.8347 252.9105 15.08817183  1307,6917.95,95.439,540.941,538.69,0.0
52476.0,STARLINK-3835,PAYLOAD,2022-08-12 22:00:01,15.08852527,0.0001710999999999,53.213,146.4745,55.5938,263.7841,-0.00095421,-0.00015448,0.0,0 STARLINK-3835,1 52476U 22049AB  22224.91668981 -.00015448  00000-0 -95421-3 0  9999,2 52476  53.2130 146.4745 0001711  55.5938 263.7841 15.08852527  1304,6917.842,95.437,540.891,538.523,0.0
52476.0,STARLINK-3835,PAYLOAD,2022-08-13 06:00:02,15.08836663,0.0001798,53.2129,144.9793,48.9832,281.9967,0.00051332,7.890000000000001e-05,0.0,0 STARLINK-3835,1 52476U 22049AB  22225.25002315  .00007890  00000-0  51332-3 0  9993,2 52476  53.2129 144.9793 0001798  48.9832 281.9967 15.08836663 15626,6917.891,95.438,540.999,538.512,0.0
52476.0,STARLINK-3835,PAYLOAD,2022-08-13 14:00:01,15.08812606,0.00016,53.2131,143.4811,54.4374,288.0851,0.0020094,0.00031812,0.0,0 STARLINK-3835,1 52476U 22049AB  22225.58334491  .00031812  00000-0  20094-2 0  9993,2 52476  53.2131 143.4811 0001600  54.4374 288.0851 15.08812606  1300,6917.964,95.439,540.936,538.722,0.0
52476.0,STARLINK-3835,PAYLOAD,2022-08-13 22:00:00,15.08851814,0.0001675999999999,53.2133,141.9853,54.714,299.3804,-0.0011626,-0.00018749,0.0,0 STARLINK-3835,1 52476U 22049AB  22225.91667824 -.00018749  00000-0 -11626-2 0  9996,2 52476  53.2133 141.9853 0001676  54.7140 299.3804 15.08851814  1305,6917.844,95.437,540.869,538.55,0.0
52476.0,STARLINK-3835,PAYLOAD,2022-08-14 06:00:02,15.08824609,0.0001786999999999,53.213,140.4898,48.8137,316.9386,0.0026361,0.00041898,0.0,0 STARLINK-3835,1 52476U 22049AB  22226.25002315  .00041898  00000-0  26361-2 0  9993,2 52476  53.2130 140.4898 0001787  48.8137 316.9386 15.08824609 15777,6917.927,95.439,541.029,538.556,0.0
52476.0,STARLINK-3835,PAYLOAD,2022-08-14 14:00:01,15.08840327,0.0001658,53.213,138.9916,56.6447,320.6487,0.00058213,8.989e-05,0.0,0 STARLINK-3835,1 52476U 22049AB  22226.58334491  .00008989  00000-0  58213-3 0  9998,2 52476  53.2130 138.9916 0001658  56.6447 320.6487 15.08840327  1301,6917.879,95.438,540.891,538.597,0.0
52476.0,STARLINK-3835,PAYLOAD,2022-08-14 22:00:00,15.08849813,0.0001818,53.2131,137.4959,57.5742,331.3162,-0.0018795,-0.00030084,0.0,0 STARLINK-3835,1 52476U 22049AB  22226.91667824 -.00030084  00000-0 -18795-2 0  9997,2 52476  53.2131 137.4959 0001818  57.5742 331.3162 15.08849813  1307,6917.85,95.437,540.9730000000002,538.4580000000002,0.0
52476.0,STARLINK-3835,PAYLOAD,2022-08-15 00:00:00,15.08838699,0.0001884,53.2129,137.1222,55.9313,65.8614,-0.00096225,-0.00015569,0.0,0 STARLINK-3835,1 52476U 22049AB  22227.00001157 -.00015569  00000-0 -96225-3 0  9995,2 52476  53.2129 137.1222 0001884  55.9313  65.8614 15.08838699 15882,6917.884,95.438,541.053,538.446,0.0
52476.0,STARLINK-3835,PAYLOAD,2022-08-15 14:00:01,15.08818741,0.0001664,53.2126,134.502,59.3082,352.7761,0.00051911,7.979e-05,0.0,0 STARLINK-3835,1 52476U 22049AB  22227.58334491  .00007979  00000-0  51911-3 0  9995,2 52476  53.2126 134.5020 0001664  59.3082 352.7761 15.08818741  1302,6917.945,95.439,540.962,538.659,0.0
52476.0,STARLINK-3835,PAYLOAD,2022-08-15 22:00:00,15.08835569,0.0001744,53.2126,133.0066,57.4885,6.1643,-0.0017018,-0.00027267,0.0,0 STARLINK-3835,1 52476U 22049AB  22227.91667824 -.00027267  00000-0 -17018-2 0  9994,2 52476  53.2126 133.0066 0001744  57.4885   6.1643 15.08835569  1301,6917.894,95.438,540.965,538.552,0.0
52476.0,STARLINK-3835,PAYLOAD,2022-08-16 00:00:00,15.08826162,0.0001794,53.2124,132.6328,55.9083,100.6423,-0.00083823,-0.00013599,0.0,0 STARLINK-3835,1 52476U 22049AB  22228.00001157 -.00013599  00000-0 -83823-3 0  9997,2 52476  53.2124 132.6328 0001794  55.9083 100.6423 15.08826162 16034,6917.9230000000025,95.438,541.029,538.547,0.0
52476.0,STARLINK-3835,PAYLOAD,2022-08-16 14:00:01,15.08809796,0.000165,53.212,130.0124,60.9363,25.8859,0.0029993,0.0004772999999999,0.0,0 STARLINK-3835,1 52476U 22049AB  22228.58334491  .00047730  00000-0  29993-2 0  9999,2 52476  53.2120 130.0124 0001650  60.9363  25.8859 15.08809796 16129,6917.973000000001,95.439,540.979,538.696,0.0
52476.0,STARLINK-3835,PAYLOAD,2022-08-16 22:00:00,15.08853745,0.0001776,53.2119,128.5171,59.5337,38.8671,-0.0015710999999999,-0.00025215,0.0,0 STARLINK-3835,1 52476U 22049AB  22228.91667824 -.00025215  00000-0 -15711-2 0  9994,2 52476  53.2119 128.5171 0001776  59.5337  38.8671 15.08853745  1308,6917.8380000000025,95.437,540.932,538.475,0.0
52476.0,STARLINK-3835,PAYLOAD,2022-08-17 06:00:02,15.08841293,0.0001825,53.2126,127.0209,54.8113,55.2534,0.0011921,0.00018736,0.0,0 STARLINK-3835,1 52476U 22049AB  22229.25002315  .00018736  00000-0  11921-2 0  9997,2 52476  53.2126 127.0209 0001825  54.8113  55.2534 15.08841293 16220,6917.876,95.437,541.004,538.479,0.0
52476.0,STARLINK-3835,PAYLOAD,2022-08-17 16:00:00,15.08844711,0.0001676999999999,53.2134,125.1486,64.1129,150.394,-0.00055249,-9.071e-05,0.0,0 STARLINK-3835,1 52476U 22049AB  22229.66667824 -.00009071  00000-0 -55249-3 0  9990,2 52476  53.2134 125.1486 0001677  64.1129 150.3940 15.08844711 16283,6917.866,95.437,540.891,538.571,0.0
52476.0,STARLINK-3835,PAYLOAD,2022-08-18 14:00:01,15.0883369,0.0001644,53.2132,121.0331,61.6919,94.7217,0.0031271,0.00049823,0.0,0 STARLINK-3835,1 52476U 22049AB  22230.58334491  .00049823  00000-0  31271-2 0  9999,2 52476  53.2132 121.0331 0001644  61.6919  94.7217 15.08833690  1307,6917.9,95.438,540.9019999999998,538.627,0.0
52476.0,STARLINK-3835,PAYLOAD,2022-08-18 22:00:00,15.08881424,0.0001718,53.2134,119.538,58.0728,109.9499,-0.0039139,-0.00062112,0.0,0 STARLINK-3835,1 52476U 22049AB  22230.91667824 -.00062112  00000-0 -39139-2 0  9994,2 52476  53.2134 119.5380 0001718  58.0728 109.9499 15.08881424  1304,6917.754,95.435,540.807,538.43,0.0
52476.0,STARLINK-3835,PAYLOAD,2022-08-19 14:00:01,15.08800982,0.0001436,53.2136,116.5435,55.997,135.2526,0.00091411,0.00014275,0.0,0 STARLINK-3835,1 52476U 22049AB  22231.58334491  .00014275  00000-0  91411-3 0  9996,2 52476  53.2136 116.5435 0001436  55.9970 135.2526 15.08800982  1309,6918.0,95.44,540.8580000000002,538.871,0.0
52476.0,STARLINK-3835,PAYLOAD,2022-08-19 16:00:00,15.08800957,0.0001458,53.2138,116.1694,57.7044,226.4334,0.0013504,0.00021246,0.0,0 STARLINK-3835,1 52476U 22049AB  22231.66667824  .00021246  00000-0  13504-2 0  9996,2 52476  53.2138 116.1694 0001458  57.7044 226.4334 15.08800957 16599,6918.0,95.44,540.873,538.856,0.0
52476.0,STARLINK-3835,PAYLOAD,2022-08-19 22:00:00,15.08810307,0.0001582,53.2138,115.0486,51.6319,151.1689,-0.00070514,-0.00011484,0.0,0 STARLINK-3835,1 52476U 22049AB  22231.91667824 -.00011484  00000-0 -70514-3 0  9994,2 52476  53.2138 115.0486 0001582  51.6319 151.1689 15.08810307  1302,6917.971,95.439,540.931,538.742,0.0
52476.0,STARLINK-3835,PAYLOAD,2022-08-20 08:00:01,15.08828174,0.0001568,53.2141,113.1776,49.9963,257.2393,-0.0019192,-0.00030693,0.0,0 STARLINK-3835,1 52476U 22049AB  22232.33334491 -.00030693  00000-0 -19192-2 0  9999,2 52476  53.2141 113.1776 0001568  49.9963 257.2393 15.08828174 16695,6917.917,95.438,540.866,538.697,0.0
52476.0,STARLINK-3835,PAYLOAD,2022-08-20 14:00:01,15.08803044,0.0001496999999999,53.2142,112.0543,55.8668,170.0571,0.00291,0.00046282,0.0,0 STARLINK-3835,1 52476U 22049AB  22232.58334491  .00046282  00000-0  29100-2 0  9995,2 52476  53.2142 112.0543 0001497  55.8668 170.0571 15.08803044  1306,6917.993,95.44,540.894,538.823,0.0
52476.0,STARLINK-3835,PAYLOAD,2022-08-20 22:00:00,15.08832755,0.000167,53.2144,110.5595,51.8445,185.6496,-0.00049902,-8.22e-05,0.0,0 STARLINK-3835,1 52476U 22049AB  22232.91667824 -.00008220  00000-0 -49902-3 0  9996,2 52476  53.2144 110.5595 0001670  51.8445 185.6496 15.08832755 16787,6917.903,95.438,540.923,538.612,0.0
52476.0,STARLINK-3835,PAYLOAD,2022-08-21 14:00:01,15.08822787,0.0001561999999999,53.2148,107.5651,57.5974,203.069,0.0026787,0.00042581,0.0,0 STARLINK-3835,1 52476U 22049AB  22233.58334491  .00042581  00000-0  26787-2 0  9992,2 52476  53.2148 107.5651 0001562  57.5974 203.0690 15.08822787  1307,6917.933000000001,95.439,540.879,538.717,0.0
52476.0,STARLINK-3835,PAYLOAD,2022-08-21 22:00:00,15.08848877,0.000172,53.2149,106.0704,52.9081,219.3521,-0.0004883999999999,-8.055e-05,0.0,0 STARLINK-3835,1 52476U 22049AB  22233.91667824 -.00008055  00000-0 -48840-3 0  9993,2 52476  53.2149 106.0704 0001720  52.9081 219.3521 15.08848877  1306,6917.853,95.437,540.908,538.528,0.0
52476.0,STARLINK-3835,PAYLOAD,2022-08-22 12:00:00,15.08844185,0.0001515,53.215,103.4502,56.6378,145.9366,-2.427e-05,-6.74e-06,0.0,0 STARLINK-3835,1 52476U 22049AB  22234.50001157 -.00000674  00000-0 -24270-4 0  9991,2 52476  53.2150 103.4502 0001515  56.6378 145.9366 15.08844185  1306,6917.868,95.437,540.781,538.685,0.0
52476.0,STARLINK-3835,PAYLOAD,2022-08-22 22:00:00,15.0883469,0.0001641,53.2151,101.5814,51.8038,255.2702,-0.00051054,-8.403e-05,0.0,0 STARLINK-3835,1 52476U 22049AB  22234.91667824 -.00008403  00000-0 -51054-3 0  9992,2 52476  53.2151 101.5814 0001641  51.8038 255.2702 15.08834690  1301,6917.897,95.438,540.8969999999998,538.626,0.0
52476.0,STARLINK-3835,PAYLOAD,2022-08-23 06:00:00,15.08852145,0.0001587,53.2148,100.0845,51.2628,267.3899,-0.0021018,-0.00033594,0.0,0 STARLINK-3835,1 52476U 22049AB  22235.25001157 -.00033594  00000-0 -21018-2 0  9996,2 52476  53.2148 100.0845 0001587  51.2628 267.3899 15.08852145 17137,6917.843000000003,95.437,540.806,538.61,0.0
